ONEWEB-0607             
1 54671U 22166AF  24241.62663284 -.00000312  00000+0 -78746-3 0  9992
2 54671  87.9333  14.8774 0001808  88.9826 271.1515 13.21825862 84672
ONEWEB-0608             
1 54672U 22166AG  24241.63295838  .00000188  00000+0  42342-3 0  9992
2 54672  87.9339  14.9018 0002047  81.8456 278.2910 13.21824659 84689
ONEWEB-0610             
1 54673U 22166AH  24241.61403883  .00000151  00000+0  33356-3 0  9997
2 54673  87.9333  14.8969 0002008  83.3872 276.7490 13.21824246 84581
ONEWEB-0611             
1 54674U 22166AJ  24241.60772165  .00000113  00000+0  24147-3 0  9995
2 54674  87.9336  14.8969 0001720 109.1746 250.9574 13.21824118 84576
ONEWEB-0612             
1 54675U 22166AK  24241.62034142  .00000084  00000+0  17198-3 0  9999
2 54675  87.9331  14.8760 0001880  89.3623 270.7726 13.21823883 84567
ONEWEB-0615             
1 54676U 22166AL  24241.60140877  .00000055  00000+0  10135-3 0  9993
2 54676  87.9334  14.9050 0001586  89.6965 270.4351 13.21827145 84576
ONEWEB-0655             
1 54677U 22166AM  24241.65030129  .00000131  00000+0  28635-3 0  9996
2 54677  87.9335  14.8975 0001414  87.2989 272.8306 13.21828345 84572
